STARLINK-1216
1 15185C 20012H   21326.15206023 -.00016334  00000-0 -10942-2 0  3262
2 15185  53.0535 248.0589 0001959  73.5077  68.8679 15.06419658    15
